[{"OBJECT_NAME":"ONEWEB-0221","OBJECT_ID":"2021-045Y","EPOCH":"2025-12-26T05:07:30.490176","MEAN_MOTION":13.15548093,"ECCENTRICITY":0.00017848,"INCLINATION":87.9019,"RA_OF_ASC_NODE":293.6985,"ARG_OF_PERICENTER":68.2794,"MEAN_ANOMALY":291.8526,"EPHEMERIS_TYPE":0,"CLASSIFICATION_TYPE":"U","NORAD_CAT_ID":48789,"ELEMENT_SET_NO":999,"REV_AT_EPOCH":22163,"BSTAR":8.6093492e-5,"MEAN_MOTION_DOT":4.5e-7,"MEAN_MOTION_DDOT":0},{"OBJECT_NAME":"ONEWEB-0213","OBJECT_ID":"2021-045Z","EPOCH":"2025-12-26T04:51:31.711968","MEAN_MOTION":13.15546639,"ECCENTRICITY":0.00019262,"INCLINATION":87.9006,"RA_OF_ASC_NODE":293.7074,"ARG_OF_PERICENTER":68.737,"MEAN_ANOMALY":291.3966,"EPHEMERIS_TYPE":0,"CLASSIFICATION_TYPE":"U","NORAD_CAT_ID":48790,"ELEMENT_SET_NO":999,"REV_AT_EPOCH":22169,"BSTAR":0.00054830577,"MEAN_MOTION_DOT":2.19e-6,"MEAN_MOTION_DDOT":0},{"OBJECT_NAME":"ONEWEB-0212","OBJECT_ID":"2021-045AA","EPOCH":"2025-12-26T04:18:27.308736","MEAN_MOTION":13.15544916,"ECCENTRICITY":0.00017112,"INCLINATION":87.9011,"RA_OF_ASC_NODE":293.7036,"ARG_OF_PERICENTER":76.2133,"MEAN_ANOMALY":283.9188,"EPHEMERIS_TYPE":0,"CLASSIFICATION_TYPE":"U","NORAD_CAT_ID":48791,"ELEMENT_SET_NO":999,"REV_AT_EPOCH":22168,"BSTAR":0.00017530079,"MEAN_MOTION_DOT":7.9e-7,"MEAN_MOTION_DDOT":0},{"OBJECT_NAME":"ONEWEB-0227","OBJECT_ID":"2021-045AB","EPOCH":"2025-12-26T04:17:18.845376","MEAN_MOTION":13.15546322,"ECCENTRICITY":0.0001744,"INCLINATION":87.9001,"RA_OF_ASC_NODE":293.7125,"ARG_OF_PERICENTER":73.424,"MEAN_ANOMALY":286.7082,"EPHEMERIS_TYPE":0,"CLASSIFICATION_TYPE":"U","NORAD_CAT_ID":48792,"ELEMENT_SET_NO":999,"REV_AT_EPOCH":22163,"BSTAR":-5.9909571e-5,"MEAN_MOTION_DOT":-1.0e-7,"MEAN_MOTION_DDOT":0},{"OBJECT_NAME":"ONEWEB-0226","OBJECT_ID":"2021-045AC","EPOCH":"2025-12-26T05:57:42.802848","MEAN_MOTION":13.15548749,"ECCENTRICITY":0.00020544,"INCLINATION":87.9003,"RA_OF_ASC_NODE":293.7079,"ARG_OF_PERICENTER":69.7682,"MEAN_ANOMALY":290.3669,"EPHEMERIS_TYPE":0,"CLASSIFICATION_TYPE":"U","NORAD_CAT_ID":48793,"ELEMENT_SET_NO":999,"REV_AT_EPOCH":22161,"BSTAR":8.6246763e-5,"MEAN_MOTION_DOT":4.5e-7,"MEAN_MOTION_DDOT":0},{"OBJECT_NAME":"ONEWEB-0224","OBJECT_ID":"2021-045AD","EPOCH":"2025-12-26T05:05:12.965568","MEAN_MOTION":13.1554714,"ECCENTRICITY":0.00011026,"INCLINATION":87.9009,"RA_OF_ASC_NODE":293.7502,"ARG_OF_PERICENTER":50.6062,"MEAN_ANOMALY":309.5166,"EPHEMERIS_TYPE":0,"CLASSIFICATION_TYPE":"U","NORAD_CAT_ID":48794,"ELEMENT_SET_NO":999,"REV_AT_EPOCH":22153,"BSTAR":0.00030487853,"MEAN_MOTION_DOT":1.28e-6,"MEAN_MOTION_DDOT":0},{"OBJECT_NAME":"ONEWEB-0233","OBJECT_ID":"2021-045AE","EPOCH":"2025-12-26T05:11:51.535680","MEAN_MOTION":13.15547202,"ECCENTRICITY":0.00017267,"INCLINATION":87.9008,"RA_OF_ASC_NODE":293.7595,"ARG_OF_PERICENTER":65.4687,"MEAN_ANOMALY":294.6623,"EPHEMERIS_TYPE":0,"CLASSIFICATION_TYPE":"U","NORAD_CAT_ID":48795,"ELEMENT_SET_NO":999,"REV_AT_EPOCH":22155,"BSTAR":0.00019207171,"MEAN_MOTION_DOT":8.5e-7,"MEAN_MOTION_DDOT":0},{"OBJECT_NAME":"ONEWEB-0190","OBJECT_ID":"2021-045AF","EPOCH":"2025-12-26T04:53:49.056000","MEAN_MOTION":13.1555004,"ECCENTRICITY":0.00021221,"INCLINATION":87.9003,"RA_OF_ASC_NODE":293.7238,"ARG_OF_PERICENTER":55.7591,"MEAN_ANOMALY":304.374,"EPHEMERIS_TYPE":0,"CLASSIFICATION_TYPE":"U","NORAD_CAT_ID":48796,"ELEMENT_SET_NO":999,"REV_AT_EPOCH":22162,"BSTAR":0.00037331377,"MEAN_MOTION_DOT":1.53e-6,"MEAN_MOTION_DDOT":0},{"OBJECT_NAME":"ONEWEB-0236","OBJECT_ID":"2021-045AG","EPOCH":"2025-12-25T20:11:17.341152","MEAN_MOTION":13.15546784,"ECCENTRICITY":0.00017043,"INCLINATION":87.9007,"RA_OF_ASC_NODE":293.8079,"ARG_OF_PERICENTER":79.2082,"MEAN_ANOMALY":280.924,"EPHEMERIS_TYPE":0,"CLASSIFICATION_TYPE":"U","NORAD_CAT_ID":48797,"ELEMENT_SET_NO":999,"REV_AT_EPOCH":22146,"BSTAR":-8.7299334e-5,"MEAN_MOTION_DOT":-2.0e-7,"MEAN_MOTION_DDOT":0},{"OBJECT_NAME":"ONEWEB-0248","OBJECT_ID":"2021-045AH","EPOCH":"2025-12-26T05:37:10.417440","MEAN_MOTION":13.15546816,"ECCENTRICITY":0.00016044,"INCLINATION":87.9015,"RA_OF_ASC_NODE":293.6947,"ARG_OF_PERICENTER":56.379,"MEAN_ANOMALY":303.7493,"EPHEMERIS_TYPE":0,"CLASSIFICATION_TYPE":"U","NORAD_CAT_ID":48798,"ELEMENT_SET_NO":999,"REV_AT_EPOCH":22167,"BSTAR":-0.00034038246,"MEAN_MOTION_DOT":-1.15e-6,"MEAN_MOTION_DDOT":0},{"OBJECT_NAME":"ONEWEB-0225","OBJECT_ID":"2021-045AJ","EPOCH":"2025-12-26T06:09:06.782400","MEAN_MOTION":13.1554675,"ECCENTRICITY":0.00020414,"INCLINATION":87.9002,"RA_OF_ASC_NODE":293.7128,"ARG_OF_PERICENTER":59.0296,"MEAN_ANOMALY":301.1035,"EPHEMERIS_TYPE":0,"CLASSIFICATION_TYPE":"U","NORAD_CAT_ID":48799,"ELEMENT_SET_NO":999,"REV_AT_EPOCH":22168,"BSTAR":0.00071056245,"MEAN_MOTION_DOT":2.8e-6,"MEAN_MOTION_DDOT":0},{"OBJECT_NAME":"ONEWEB-0215","OBJECT_ID":"2021-045AK","EPOCH":"2025-12-26T05:25:44.643360","MEAN_MOTION":13.15546777,"ECCENTRICITY":0.00019257,"INCLINATION":87.9018,"RA_OF_ASC_NODE":293.6824,"ARG_OF_PERICENTER":54.4473,"MEAN_ANOMALY":305.6837,"EPHEMERIS_TYPE":0,"CLASSIFICATION_TYPE":"U","NORAD_CAT_ID":48800,"ELEMENT_SET_NO":999,"REV_AT_EPOCH":22155,"BSTAR":-6.0571203e-5,"MEAN_MOTION_DOT":-1.0e-7,"MEAN_MOTION_DDOT":0},{"OBJECT_NAME":"ONEWEB-0216","OBJECT_ID":"2021-045AL","EPOCH":"2025-12-25T07:45:10.593792","MEAN_MOTION":13.15548483,"ECCENTRICITY":0.0001973,"INCLINATION":87.9003,"RA_OF_ASC_NODE":293.8908,"ARG_OF_PERICENTER":75.8525,"MEAN_ANOMALY":284.2825,"EPHEMERIS_TYPE":0,"CLASSIFICATION_TYPE":"U","NORAD_CAT_ID":48801,"ELEMENT_SET_NO":999,"REV_AT_EPOCH":22144,"BSTAR":-0.00067049,"MEAN_MOTION_DOT":-2.4e-6,"MEAN_MOTION_DDOT":0},{"OBJECT_NAME":"ONEWEB-0239","OBJECT_ID":"2021-045AM","EPOCH":"2025-12-26T05:46:17.712192","MEAN_MOTION":13.15547374,"ECCENTRICITY":0.00017188,"INCLINATION":87.9,"RA_OF_ASC_NODE":293.7222,"ARG_OF_PERICENTER":46.6337,"MEAN_ANOMALY":313.4936,"EPHEMERIS_TYPE":0,"CLASSIFICATION_TYPE":"U","NORAD_CAT_ID":48802,"ELEMENT_SET_NO":999,"REV_AT_EPOCH":22160,"BSTAR":-3.6772379e-5,"MEAN_MOTION_DOT":-1.0e-8,"MEAN_MOTION_DDOT":0},{"OBJECT_NAME":"ONEWEB-0249","OBJECT_ID":"2021-060A","EPOCH":"2025-12-26T03:48:58.301568","MEAN_MOTION":13.16592315,"ECCENTRICITY":0.00016448,"INCLINATION":87.9046,"RA_OF_ASC_NODE":263.231,"ARG_OF_PERICENTER":70.0612,"MEAN_ANOMALY":290.0696,"EPHEMERIS_TYPE":0,"CLASSIFICATION_TYPE":"U","NORAD_CAT_ID":48967,"ELEMENT_SET_NO":999,"REV_AT_EPOCH":21684,"BSTAR":3.634374e-5,"MEAN_MOTION_DOT":2.7e-7,"MEAN_MOTION_DDOT":0},{"OBJECT_NAME":"ONEWEB-0250","OBJECT_ID":"2021-060B","EPOCH":"2025-12-26T04:24:37.278720","MEAN_MOTION":13.25822361,"ECCENTRICITY":6.775e-5,"INCLINATION":87.9042,"RA_OF_ASC_NODE":261.5481,"ARG_OF_PERICENTER":58.1868,"MEAN_ANOMALY":301.9334,"EPHEMERIS_TYPE":0,"CLASSIFICATION_TYPE":"U","NORAD_CAT_ID":48968,"ELEMENT_SET_NO":999,"REV_AT_EPOCH":21729,"BSTAR":-1.443138e-5,"MEAN_MOTION_DOT":7.0e-8,"MEAN_MOTION_DDOT":0}]
