ONEWEB-0221             
1 48789U 21045Y   25360.21354734  .00000045  00000+0  86093-4 0  9991
2 48789  87.9019 293.6985 0001784  68.2794 291.8526 13.15548093221636
ONEWEB-0213             
1 48790U 21045Z   25360.20245037  .00000219  00000+0  54831-3 0  9994
2 48790  87.9006 293.7074 0001926  68.7370 291.3966 13.15546639221690
ONEWEB-0212             
1 48791U 21045AA  25360.17948274  .00000079  00000+0  17530-3 0  9993
2 48791  87.9011 293.7036 0001711  76.2133 283.9188 13.15544916221686
ONEWEB-0227             
1 48792U 21045AB  25360.17869034 -.00000010  00000+0 -59910-4 0  9996
2 48792  87.9001 293.7125 0001744  73.4240 286.7082 13.15546322221631
ONEWEB-0226             
1 48793U 21045AC  25360.24841207  .00000045  00000+0  86247-4 0  9996
2 48793  87.9003 293.7079 0002054  69.7682 290.3669 13.15548749221610
ONEWEB-0224             
1 48794U 21045AD  25360.21195562  .00000128  00000+0  30488-3 0  9997
2 48794  87.9009 293.7502 0001102  50.6062 309.5166 13.15547140221532
ONEWEB-0233             
1 48795U 21045AE  25360.21656870  .00000085  00000+0  19207-3 0  9990
2 48795  87.9008 293.7595 0001726  65.4687 294.6623 13.15547202221556
ONEWEB-0190             
1 48796U 21045AF  25360.20404000  .00000153  00000+0  37331-3 0  9990
2 48796  87.9003 293.7238 0002122  55.7591 304.3740 13.15550040221624
ONEWEB-0236             
1 48797U 21045AG  25359.84117293 -.00000020  00000+0 -87299-4 0  9998
2 48797  87.9007 293.8079 0001704  79.2082 280.9240 13.15546784221460
ONEWEB-0248             
1 48798U 21045AH  25360.23414835 -.00000115  00000+0 -34038-3 0  9993
2 48798  87.9015 293.6947 0001604  56.3790 303.7493 13.15546816221676
ONEWEB-0225             
1 48799U 21045AJ  25360.25632850  .00000280  00000+0  71056-3 0  9997
2 48799  87.9002 293.7128 0002041  59.0296 301.1035 13.15546750221684
ONEWEB-0215             
1 48800U 21045AK  25360.22621115 -.00000010  00000+0 -60571-4 0  9993
2 48800  87.9018 293.6824 0001925  54.4473 305.6837 13.15546777221556
ONEWEB-0216             
1 48801U 21045AL  25359.32303928 -.00000240  00000+0 -67049-3 0  9993
2 48801  87.9003 293.8908 0001973  75.8525 284.2825 13.15548483221447
ONEWEB-0239             
1 48802U 21045AM  25360.24048278 -.00000001  00000+0 -36772-4 0  9996
2 48802  87.9000 293.7222 0001718  46.6337 313.4936 13.15547374221601
ONEWEB-0249             
1 48967U 21060A   25360.15900812  .00000027  00000+0  36344-4 0  9997
2 48967  87.9046 263.2310 0001644  70.0612 290.0696 13.16592315216847
ONEWEB-0250             
1 48968U 21060B   25360.18376480  .00000007  00000+0 -14431-4 0  9991
2 48968  87.9042 261.5481 0000677  58.1868 301.9334 13.25822361217297
